     2.100          NAVIGATION                              RINEX VERSION / TYPE
fic2rin                                 06/01/2017 00:20:14 PGM / RUN BY / DATE
                                                            END OF HEADER
21 17  5 31 10  0  0.0 -.503791961819D-03  .227373675443D-11  .000000000000D+00
     .124000000000D+03 -.749062500000D+02  .501949479639D-08 -.277246394414D+00
    -.395067036152D-05  .239737525117D-01  .730156898499D-05  .515367492676D+04
     .295200000000D+06 -.366941094398D-06 -.256125719014D+01  .221654772758D-06
     .939935293609D+00  .234125000000D+03 -.166837894163D+01 -.877000816318D-08
     .127505311108D-09  .100000000000D+01  .195100000000D+04  .000000000000D+00
     .340000000000D+01  .000000000000D+00 -.977888703346D-08  .124000000000D+03
     .288006000000D+06  .400000000000D+01
23 17  5 31 10  0  0.0 -.212743878365D-03 -.682121026330D-12  .000000000000D+00
     .920000000000D+02  .256250000000D+02  .532093592405D-08  .231603432118D+01
     .125542283058D-05  .117457546294D-01  .681355595589D-05  .515373597145D+04
     .295200000000D+06 -.175088644028D-06 -.436540381236D+00 -.197440385818D-06
     .944501931371D+00  .243281250000D+03 -.245855692360D+01 -.827391607039D-08
     .100718481043D-09  .100000000000D+01  .195100000000D+04  .000000000000D+00
     .240000000000D+01  .000000000000D+00 -.204890966415D-07  .920000000000D+02
     .288006000000D+06  .400000000000D+01
24 17  5 31 10  0  0.0 -.355653464794D-04 -.568434188608D-12  .000000000000D+00
     .950000000000D+02  .303125000000D+01  .508556897722D-08  .171220797021D+01
     .240281224251D-06  .565488671418D-02  .766478478909D-05  .515368929291D+04
     .295200000000D+06 -.126659870148D-06  .586317452510D+00  .819563865662D-07
     .945582850818D+00  .225062500000D+03  .489245638930D+00 -.833070415012D-08
    -.451447376024D-09  .100000000000D+01  .195100000000D+04  .000000000000D+00
     .340000000000D+01  .000000000000D+00  .279396772385D-08  .950000000000D+02
     .288006000000D+06  .400000000000D+01
25 17  5 31 10  0  0.0 -.396623276174D-03 -.659383658785D-11  .000000000000D+00
     .850000000000D+02  .490937500000D+02  .411195699380D-08 -.239202353955D+00
     .258907675743D-05  .651713297702D-02  .823475420475D-05  .515358692741D+04
     .295200000000D+06  .260770320892D-07  .166910511222D+01  .912696123123D-07
     .976922647858D+00  .227125000000D+03  .816863170133D+00 -.801497671309D-08
    -.903609067516D-10  .100000000000D+01  .195100000000D+04  .000000000000D+00
     .240000000000D+01  .000000000000D+00  .558793544769D-08  .850000000000D+02
     .288006000000D+06  .400000000000D+01
26 17  5 31 10  0  0.0 -.497669447213D-03  .511590769747D-11  .000000000000D+00
     .400000000000D+02  .556250000000D+02  .434268089009D-08 -.865909343480D+00
     .288896262646D-05  .181783258449D-02  .794045627117D-05  .515371463203D+04
     .295200000000D+06  .447034835815D-07  .165360851171D+01 -.540167093277D-07
     .958697282344D+00  .228718750000D+03  .101962695430D+00 -.805569269479D-08
    -.123933733766D-09  .100000000000D+01  .195100000000D+04  .000000000000D+00
     .240000000000D+01  .000000000000D+00  .745058059692D-08  .400000000000D+02
     .288006000000D+06  .400000000000D+01
27 17  5 31 10  0  0.0  .267273746431D-03  .682121026330D-11  .000000000000D+00
     .530000000000D+02 -.409375000000D+01  .419696053454D-08 -.258962896339D+01
    -.160187482834D-06  .484130484983D-02  .383891165257D-05  .515366409874D+04
     .295200000000D+06  .596046447754D-07  .270906205035D+01  .558793544769D-08
     .975093972464D+00  .314656250000D+03  .355672925011D+00 -.808962267954D-08
     .176078762959D-09  .100000000000D+01  .195100000000D+04  .000000000000D+00
     .240000000000D+01  .000000000000D+00  .139698386192D-08  .530000000000D+02
     .288006000000D+06  .400000000000D+01
28 17  5 31 10  0  0.0  .617150217295D-03  .306954461848D-11  .000000000000D+00
     .130000000000D+02  .732500000000D+02  .368301055503D-08 -.174559925531D+01
     .386871397495D-05  .197215281660D-01  .865198671818D-05  .515365461922D+04
     .295200000000D+06  .229105353355D-06  .174790492246D+01  .463798642159D-06
     .988272289622D+00  .227750000000D+03 -.156939772883D+01 -.767246244600D-08
    -.100004165575D-09  .100000000000D+01  .195100000000D+04  .000000000000D+00
     .240000000000D+01  .000000000000D+00 -.111758708954D-07  .130000000000D+02
     .288006000000D+06  .400000000000D+01
29 17  5 31 10  0  0.0  .599442515522D-03 -.352429196937D-11  .000000000000D+00
     .710000000000D+02 -.562500000000D+00  .413517224652D-08 -.912800486353D+00
    -.558793544769D-07  .695898197591D-03  .394135713577D-05  .515362327957D+04
     .295200000000D+06  .391155481339D-07  .277119345538D+01  .558793544769D-08
     .981349379449D+00  .314718750000D+03  .383184275677D+00 -.808640825993D-08
     .800033324599D-10  .100000000000D+01  .195100000000D+04  .000000000000D+00
     .240000000000D+01  .000000000000D+00 -.977888703346D-08  .710000000000D+02
     .288006000000D+06  .400000000000D+01
30 17  5 31 10  0  0.0  .155398622155D-03 -.113686837722D-11  .000000000000D+00
     .770000000000D+02  .129375000000D+02  .492056210402D-08  .888760846560D+00
     .657513737679D-06  .285363697913D-02  .776723027229D-05  .515367413712D+04
     .295200000000D+06  .335276126862D-07  .678684906293D+00 -.428408384323D-07
     .948229006299D+00  .217250000000D+03  .309651326161D+01 -.827498754359D-08
    -.556094592143D-09  .100000000000D+01  .195100000000D+04  .000000000000D+00
     .240000000000D+01  .000000000000D+00  .372529029846D-08  .770000000000D+02
     .288006000000D+06  .400000000000D+01
31 17  5 31 10  0  0.0  .197704415768D-03 -.238742359215D-11  .000000000000D+00
     .111000000000D+03  .125625000000D+02  .447697219815D-08  .665124631465D+00
     .560656189919D-06  .840924342629D-02  .785104930401D-05  .515371068573D+04
     .295200000000D+06  .104308128357D-06  .650778882273D+00  .931322574615D-08
     .967259539979D+00  .227812500000D+03 -.254596045496D+00 -.807105047736D-08
    -.487163149443D-09  .100000000000D+01  .195100000000D+04  .000000000000D+00
     .340000000000D+01  .000000000000D+00 -.135041773319D-07  .111000000000D+03
     .288006000000D+06  .400000000000D+01
32 17  5 31 10  0  0.0 -.428212806582D-03 -.989075488178D-11  .000000000000D+00
     .510000000000D+02  .272812500000D+02  .500020827875D-08 -.196249146487D+01
     .147148966789D-05  .123487191740D-02  .666081905365D-05  .515372467613D+04
     .295200000000D+06  .987201929092D-07 -.435122561996D+00  .447034835815D-07
     .958127860500D+00  .249312500000D+03 -.258203561249D+01 -.826641575797D-08
     .875036448780D-10  .100000000000D+01  .195100000000D+04  .000000000000D+00
     .240000000000D+01  .000000000000D+00  .465661287308D-09  .510000000000D+02
     .288006000000D+06  .400000000000D+01
31 17  5 31  9 59 44.0  .197700690478D-03 -.238742359215D-11  .000000000000D+00
     .140000000000D+02  .125625000000D+02  .447697219815D-08  .662791161558D+00
     .560656189919D-06  .840924249496D-02  .785104930401D-05  .515371068954D+04
     .295184000000D+06  .104308128357D-06  .650779009546D+00  .931322574615D-08
     .967259538517D+00  .227812500000D+03 -.254596270785D+00 -.807105047736D-08
    -.487163149443D-09  .100000000000D+01  .195100000000D+04  .000000000000D+00
     .240000000000D+01  .000000000000D+00 -.135041773319D-07  .140000000000D+02
     .288846000000D+06  .400000000000D+01
21 17  5 31  9 59 44.0 -.503793824464D-03  .227373675443D-11  .000000000000D+00
     .200000000000D+01 -.749062500000D+02  .501913763866D-08 -.279580341232D+00
    -.395067036152D-05  .239737540251D-01  .730156898499D-05  .515367494011D+04
     .295184000000D+06 -.366941094398D-06 -.256125704092D+01  .221654772758D-06
     .939935302387D+00  .234125000000D+03 -.166837883191D+01 -.877000816318D-08
     .127505311108D-09  .100000000000D+01  .195100000000D+04  .000000000000D+00
     .240000000000D+01  .000000000000D+00 -.977888703346D-08  .200000000000D+01
     .289506000000D+06  .400000000000D+01
23 17  5 31  9 59 44.0 -.212745275348D-03 -.682121026330D-12  .000000000000D+00
     .160000000000D+02  .256250000000D+02  .532093592405D-08  .231370080153D+01
     .125542283058D-05  .117457525339D-01  .681355595589D-05  .515373597527D+04
     .295184000000D+06 -.175088644028D-06 -.436540248111D+00 -.197440385818D-06
     .944501929908D+00  .243281250000D+03 -.245855705965D+01 -.827391607039D-08
     .101075638777D-09  .100000000000D+01  .195100000000D+04  .000000000000D+00
     .240000000000D+01  .000000000000D+00 -.204890966415D-07  .160000000000D+02
     .293196000000D+06  .400000000000D+01
 7 17  5 31  9 59 44.0  .345280393958D-03 -.443378667114D-11  .000000000000D+00
     .100000000000D+01  .184062500000D+02  .468519515718D-08  .891175957536D+00
     .121444463730D-05  .105806689244D-01  .813975930214D-05  .515373903275D+04
     .295184000000D+06  .335276126862D-07  .639824499030D+00  .108033418655D-06
     .962519228972D+00  .222843750000D+03 -.260139291087D+01 -.823320008869D-08
    -.601453624386D-09  .100000000000D+01  .195100000000D+04  .000000000000D+00
     .240000000000D+01  .000000000000D+00 -.111758708954D-07  .100000000000D+01
     .293346000000D+06  .400000000000D+01
15 17  5 31  9 59 44.0 -.350886490196D-03 -.682121026330D-12  .000000000000D+00
     .210000000000D+02  .313125000000D+02  .561737684344D-08  .275554360249D+01
     .158324837685D-05  .915101030841D-02  .691786408424D-05  .515379939461D+04
     .295184000000D+06 -.109896063805D-06 -.499994128157D+00 -.141561031342D-06
     .929206953154D+00  .230125000000D+03  .581691682136D+00 -.834320467082D-08
     .152863510236D-09  .100000000000D+01  .195100000000D+04  .000000000000D+00
     .240000000000D+01  .000000000000D+00 -.107102096081D-07  .210000000000D+02
     .293706000000D+06  .400000000000D+01
